{
  "norad_id": 47126,
  "name": "STARLINK-1812",
  "history": [
    {
      "epoch": "2026-03-28T18:20:18.411936",
      "apogee_km": 517.3390834557676,
      "perigee_km": 516.628196517785,
      "latitude_deg": 16.786245355120858,
      "longitude_deg": 45.95379104022868,
      "semi_major_axis_km": 6895.120639986776,
      "eccentricity": 5.155e-05,
      "inclination_deg": 53.0798,
      "raan_deg": 212.8312,
      "arg_perigee_deg": 278.8427,
      "mean_anomaly_deg": 81.2508,
      "mean_motion_rev_day": 15.1631684
    }
  ]
}